{"type":"FeatureCollection","features":[{"type":"Feature","geometry":{"type":"Polygon","coordinates":[[[22.611188096949007,-33.969951906857595],[22.61116951066357,-33.96993600017997],[22.61100251250037,-33.96979307523108],[22.61096518494396,-33.969777507759815],[22.610946571388418,-33.96976974536467],[22.610804727801852,-33.96970595644231],[22.610647994976492,-33.96962640211559],[22.610625927582564,-33.96962672176075],[22.610476650998628,-33.96962888725927],[22.610397375881824,-33.9696300363996],[22.61030736081004,-33.96961735540199],[22.610211847783045,-33.969652617304895],[22.610116541131685,-33.96964382482687],[22.61005529452041,-33.969638174739536],[22.609953605202705,-33.96964710848735],[22.609914787014088,-33.96967037198907],[22.609756876801928,-33.96967253268861],[22.609743117758494,-33.969667295358065],[22.609629386967505,-33.96962400751996],[22.609604077580258,-33.9696269789102],[22.60989156217898,-33.970087201782235],[22.609902377283465,-33.970149027676605],[22.61015558438408,-33.97157016698321],[22.610867627268714,-33.97168416210528],[22.611164626601592,-33.971731089561644],[22.61131565421591,-33.97170612823989],[22.61126664882179,-33.971627163719354],[22.6111680970705,-33.97146737756486],[22.61117763399182,-33.9707551756079],[22.61118572892544,-33.97012795964385],[22.611188096949007,-33.969951906857595]]]},"properties":{"town":"GEORGE","parcel_num":"27","zoning":"Agricultural Zone II","allotment":"HOEKWIL","sg21cde":"C02700050000002700000","place":"Hoekwil","summary":"Permanent departures relaxing Agricultural Zone II building lines (east and south) for the existing dwelling, shade-cloth carport, shed and shower, to enable as-built building-plan approval.","purpose":"Permanent departures relaxing Agricultural Zone II building lines (east and south) for the existing dwelling, shade-cloth carport, shed and shower, to enable as-built building-plan approval.","source":"George mun","url":"https://www.george.gov.za/planning-and-develop/gm-submission-of-land-use-application-for-erf-27-hoekwil/","mun_zoning":"Agricultural Zone II","mun_town":"GEORGE","mun_allotment":"HOEKWIL","erf":"27"}},{"geometry":{"type":"Polygon","coordinates":[[[22.596428786097007,-33.96353344160907],[22.596794800248695,-33.962089470626616],[22.596952799447845,-33.961436484569774],[22.594852697578688,-33.962136480889484],[22.591916549580173,-33.96311546810735],[22.591880969369164,-33.963577899803724],[22.591891906130368,-33.964241166707524],[22.592276576629978,-33.96514541814929],[22.593649396682018,-33.96437530058096],[22.595323732101885,-33.96431742607448],[22.595346573448793,-33.96429458973991],[22.595434124517936,-33.96420947129571],[22.59552083785414,-33.96414494994973],[22.59559496500856,-33.964076907289645],[22.59567725490636,-33.96400120587206],[22.595750075485295,-33.96392730069456],[22.595841123077676,-33.96387092062889],[22.595935765580226,-33.963812321014615],[22.59604123939559,-33.96372558141793],[22.59612414772316,-33.963663784189144],[22.59623203809142,-33.96359997821537],[22.596343083637507,-33.96357297475851],[22.596420530207887,-33.96353768327451],[22.596428786097007,-33.96353344160907]]]},"type":"Feature","properties":{"town":"GEORGE","parcel_num":"226","zoning":"Agricultural Zone II","allotment":"HOEKWIL","sg21cde":"C02700050000022600000","erf":"226","place":"Hoekwil","summary":"Administrator\u2019s consent for a second dwelling, plus permanent departures relaxing 30 m building lines (north, west street, and south boundaries).","source":"George mun","url":"https://www.george.gov.za/planning-and-develop/gm-notice-of-land-use-application-for-erf-226-hoekwil/","mun_zoning":"Agricultural Zone II","mun_town":"GEORGE","mun_allotment":"HOEKWIL","purpose":"Administrator\u2019s consent for a second dwelling, plus permanent departures relaxing 30 m building lines (north, west street, and south boundaries)."}},{"geometry":{"type":"Polygon","coordinates":[[[22.446729921662584,-34.001392061628515],[22.44715404537459,-34.00243034482878],[22.447235360251707,-34.00249354584774],[22.447334932524438,-34.002528881873125],[22.44744303734996,-34.0025336947848],[22.44827268267994,-34.002323308795035],[22.44855261427084,-34.002271104149244],[22.45282827602132,-34.001186651767924],[22.45278047376895,-34.001004891024934],[22.452744113176628,-34.00086663331096],[22.452720953443375,-34.000778571203135],[22.452697793756677,-34.00069050909014],[22.452674635198978,-34.0006024469769],[22.452651475605442,-34.000514384853595],[22.45262831605849,-34.00042632272521],[22.452605156558118,-34.000338260591604],[22.452581997110155,-34.000250197551416],[22.452558837702952,-34.000162135407585],[22.45253567834226,-34.00007407325859],[22.45251251902819,-33.999986011104426],[22.452489359760737,-33.999897948945154],[22.45246620053983,-33.99980988678068],[22.452443042447864,-33.99972182461591],[22.452419883320058,-33.999633762441164],[22.452396724244657,-33.99954569935978],[22.452345773999294,-33.99935196218336],[22.45229482506177,-33.99915822498689],[22.452271666232036,-33.99907016277922],[22.45224850744892,-33.99898210056636],[22.45222534871235,-33.9988940383484],[22.452202190028157,-33.99880597522382],[22.452179031384752,-33.99871791299551],[22.452155872787902,-33.99862985076214],[22.452132715314196,-33.99854178942991],[22.452109556816264,-33.99845372628469],[22.452086398359096,-33.998365664035845],[22.452063239948576,-33.99827760178179],[22.452040081578716,-33.998189540424136],[22.452016923272872,-33.99810147635689],[22.451993765002037,-33.99801341408748],[22.45197060677768,-33.99792535181282],[22.451945133651794,-33.9978284831284],[22.451905764433803,-33.997678776877684],[22.451870240241718,-33.997543688697135],[22.45057580733319,-33.9977646457293],[22.44798525021574,-33.99833110068065],[22.44683253428473,-33.998861061587874],[22.44757932135913,-34.00117869941163],[22.446729921662584,-34.001392061628515]]]},"type":"Feature","properties":{"town":"GEORGE","parcel_num":"325","zoning":"Undetermined Use Zone","allotment":"PACALTSDORP","sg21cde":"C02700070000032500000","erf":"325","place":"Pacaltsdorp","summary":"Subdivision, consolidation and rezoning from Subdivisional Area / Agricultural Zone I to Utility Zone for the Thembalethu No. 6 sewer pump station (with Farm Sandkraal portions).","source":"George mun","url":"https://www.george.gov.za/wp-content/uploads/2026/08/Motivation-Pg-311-382-1.pdf","mun_zoning":"Undetermined Use Zone","mun_town":"GEORGE","mun_allotment":"PACALTSDORP","purpose":"Subdivision, consolidation and rezoning from Subdivisional Area / Agricultural Zone I to Utility Zone for the Thembalethu No. 6 sewer pump station (with Farm Sandkraal portions)."}},{"type":"Feature","geometry":{"type":"Polygon","coordinates":[[[22.6170261306318,-33.99621053768414],[22.616747110990044,-33.99599753563439],[22.61650509936643,-33.99621753861416],[22.616660116028502,-33.99633553180585],[22.6170261306318,-33.99621053768414]]]},"properties":{"town":"GEORGE","parcel_num":"570","zoning":"Single Residential Zone I","allotment":"WILDERNESS","sg21cde":"C02700090000057000000","place":"Wilderness","summary":"Rezoning from Single Residential Zone I to General Residential Zone I for a double dwelling, plus permanent departures (building lines, coverage, wall-plate height, refuse room) and administrator\u2019s consent to title-deed restrictions.","purpose":"Rezoning from Single Residential Zone I to General Residential Zone I for a double dwelling, plus permanent departures (building lines, coverage, wall-plate height, refuse room) and administrator\u2019s consent to title-deed restrictions.","source":"George mun","url":"https://www.george.gov.za/wp-content/uploads/2026/09/Erf-570_Wilderness_Motivational-Report.pdf","mun_zoning":"Single Residential Zone I","mun_town":"GEORGE","mun_allotment":"WILDERNESS","erf":"570"}},{"geometry":{"type":"Polygon","coordinates":[[[22.407068773648575,-33.941029023586076],[22.406679632594795,-33.940802737630285],[22.406176616300225,-33.94139972517811],[22.40648614654083,-33.94172129030002],[22.406505500901847,-33.94169836956043],[22.406680615885783,-33.941490324747214],[22.40679864207661,-33.94135010195502],[22.406922880204238,-33.94120249936237],[22.4070506581362,-33.94105069005765],[22.407068773648575,-33.941029023586076]]]},"type":"Feature","properties":{"town":"GEORGE","parcel_num":"1182","zoning":"Subdivisional Area Overlay Zone","allotment":"BLANCO","sg21cde":"C02700010000118200000","erf":"1182","place":"Blanco","summary":"Rezoning from Single Residential Zone I to Subdivisional Area, then subdivision into 10 General Residential Zone II group-housing erven (\u00b126 du/ha).","source":"George mun","url":"https://www.george.gov.za/planning-and-develop/gm-notice-of-land-use-application-for-erf-1182-blanco/","mun_zoning":"Subdivisional Area Overlay Zone","mun_town":"GEORGE","mun_allotment":"BLANCO","purpose":"Rezoning from Single Residential Zone I to Subdivisional Area, then subdivision into 10 General Residential Zone II group-housing erven (\u00b126 du/ha)."}},{"geometry":{"type":"Polygon","coordinates":[[[22.562860234068996,-33.99370788106382],[22.562830010327083,-33.993649239632504],[22.562863134324196,-33.99358390410676],[22.56280926030895,-33.99315972582344],[22.56250647134552,-33.992980955823015],[22.56230277959311,-33.992980901164316],[22.560596795847836,-33.99596734144985],[22.5605221327669,-33.996095849038056],[22.561975351810773,-33.99555792696226],[22.562048627504836,-33.99534659611377],[22.562860234068996,-33.99370788106382]]]},"type":"Feature","properties":{"town":"GEORGE","parcel_num":"2003","zoning":"Open Space Zone III","allotment":"WILDERNESS","sg21cde":"C02700090000200300000","erf":"2003","place":"Wilderness","summary":"Permanent departure to relax wall-plate height from 6.5 m to 8.5 m, with SDP approval for a new dwelling (skyline / height).","source":"George mun","url":"https://www.george.gov.za/planning-and-develop/gm-notice-of-land-use-application-for-erf-2003-wilderness/","mun_zoning":"Open Space Zone III","mun_town":"GEORGE","mun_allotment":"WILDERNESS","purpose":"Permanent departure to relax wall-plate height from 6.5 m to 8.5 m, with SDP approval for a new dwelling (skyline / height)."}},{"type":"Feature","geometry":{"type":"Polygon","coordinates":[[[22.58259333960687,-33.9892508992364],[22.582092224646996,-33.98913989833172],[22.5820214649132,-33.98924295456583],[22.582090927758916,-33.98951073032183],[22.58259335234085,-33.98949200730922],[22.58259333960687,-33.9892508992364]]]},"properties":{"town":"GEORGE","parcel_num":"2023","zoning":"Single Residential Zone I","allotment":"WILDERNESS","sg21cde":"C02700090000202300000","place":"Wilderness","summary":"Permanent departure from conditions of approval (Constantia Kloof) relating to building materials of the existing dwelling house.","purpose":"Permanent departure from conditions of approval (Constantia Kloof) relating to building materials of the existing dwelling house.","source":"George mun","url":"https://www.george.gov.za/wp-content/uploads/2026/09/Erf-2023-Wilderness-Complete-application.pdf","mun_zoning":"Single Residential Zone I","mun_town":"GEORGE","mun_allotment":"WILDERNESS","erf":"2023"}},{"geometry":{"type":"Polygon","coordinates":[[[22.59004789671657,-33.990211943421365],[22.59016150099693,-33.990039003905544],[22.590134667411363,-33.98997392004617],[22.589904346721255,-33.989868780432836],[22.589786294041563,-33.99010588798281],[22.59004789671657,-33.990211943421365]]]},"type":"Feature","properties":{"town":"GEORGE","parcel_num":"2122","zoning":"Single Residential Zone I","allotment":"WILDERNESS","sg21cde":"C02700090000212200000","erf":"2122","place":"Wilderness","summary":"Permanent departure for building-line relaxation on Erf 2122, Wilderness.","source":"George mun","url":"https://www.george.gov.za/planning-and-develop/gm-notice-of-land-use-application-for-erf-2122-wilderness/","mun_zoning":"Single Residential Zone I","mun_town":"GEORGE","mun_allotment":"WILDERNESS","purpose":"Permanent departure for building-line relaxation on Erf 2122, Wilderness."}},{"type":"Feature","geometry":{"type":"Polygon","coordinates":[[[22.456854307966765,-33.968883396669504],[22.456452287145858,-33.96866940566672],[22.456114586900988,-33.96911564936907],[22.456604163986352,-33.9693762580541],[22.456722620456965,-33.96922126694451],[22.456792297484565,-33.96925831867442],[22.45685131206757,-33.96918138013953],[22.456778745362577,-33.96914291021764],[22.456942312491844,-33.96892939024308],[22.456854307966765,-33.968883396669504]]]},"properties":{"town":"GEORGE","parcel_num":"2385","zoning":"Single Residential Zone I","allotment":"GEORGE","sg21cde":"C02700020000238500000","place":"George","summary":"Removal of restrictive title condition B; rezoning from Single Residential Zone I to Community Zone I (classroom / institutional use); permanent departures relaxing rear building lines for an existing outbuilding conversion.","purpose":"Removal of restrictive title condition B; rezoning from Single Residential Zone I to Community Zone I (classroom / institutional use); permanent departures relaxing rear building lines for an existing outbuilding conversion.","source":"George mun","url":"https://www.george.gov.za/wp-content/uploads/2026/09/Erf-2385-George-Complete-application-August-2026.pdf","mun_zoning":"Single Residential Zone I","mun_town":"GEORGE","mun_allotment":"GEORGE","erf":"2385"}},{"geometry":{"type":"Polygon","coordinates":[[[22.44187437032618,-33.94924016626497],[22.4419288856143,-33.94919729539303],[22.44193134550354,-33.94871717276919],[22.441590346557682,-33.948716180901236],[22.441590340591603,-33.94881216778279],[22.441590350450582,-33.94923815434193],[22.44187437032618,-33.94924016626497]]]},"type":"Feature","properties":{"town":"GEORGE","parcel_num":"4881","zoning":"Single Residential Zone I","allotment":"GEORGE","sg21cde":"C02700020000488100000","erf":"4881","place":"George","summary":"Permanent departures for building-line relaxations (garage and street/side boundaries) and related development-parameter departures.","source":"George mun","url":"https://www.george.gov.za/planning-and-develop/gm-notice-of-land-use-application-for-erf-4881-george/","mun_zoning":"Single Residential Zone I","mun_town":"GEORGE","mun_allotment":"GEORGE","purpose":"Permanent departures for building-line relaxations (garage and street/side boundaries) and related development-parameter departures."}},{"geometry":{"type":"Polygon","coordinates":[[[22.47310679358995,-33.952408709707626],[22.47308400741708,-33.95239713036881],[22.472979136130416,-33.95238180719234],[22.47292764686022,-33.95238576260151],[22.472904778395936,-33.95240086978443],[22.472887580014376,-33.95241995893194],[22.47286662796441,-33.9524733998926],[22.472849439718114,-33.95249242056203],[22.472813207113862,-33.95248866200698],[22.47277313497468,-33.95247721683273],[22.472723554374298,-33.95245812656493],[22.472675843202282,-33.952416230324765],[22.472662527815242,-33.95239701680604],[22.472645330506662,-33.95235524495533],[22.472609121569423,-33.952339945134455],[22.47256904254207,-33.952343659888335],[22.472530923869424,-33.952351387597666],[22.472502298107432,-33.952366470937626],[22.472351586839338,-33.95245817261552],[22.472315371985545,-33.95245802910042],[22.472302001823838,-33.952454361184],[22.472221896427186,-33.952416265557474],[22.472174207212458,-33.952374361104376],[22.47211920359735,-33.95230290397017],[22.470621224635654,-33.95384426543605],[22.4709227546242,-33.95425277001508],[22.471039757210903,-33.95441164706707],[22.471214648461387,-33.954219483279445],[22.4712196770678,-33.954214020913696],[22.47142880869768,-33.9542207519494],[22.47167381698693,-33.95422873557355],[22.471918843602335,-33.95423673772091],[22.472041849988383,-33.954239729217186],[22.47228685072766,-33.95424772871818],[22.47253185911429,-33.95425572415844],[22.472678104231722,-33.954260495936104],[22.472776875126023,-33.95426371914386],[22.473021892588793,-33.95427166226119],[22.47310679358995,-33.952408709707626]]]},"type":"Feature","properties":{"town":"GEORGE","parcel_num":"7173","zoning":"Community Zone III","allotment":"GEORGE","sg21cde":"C02700020000717300000","erf":"7173","place":"George","summary":"Removal of restrictive title condition C.3; rezoning from Community Zone III to Subdivisional Area for group housing (about 26 + 11 units), with remainder kept as Community Zone III (child and youth care centre).","source":"George mun","url":"https://www.george.gov.za/planning-and-develop/gm-notice-of-land-use-application-for-erf-7173-george/","mun_zoning":"Community Zone III","mun_town":"GEORGE","mun_allotment":"GEORGE","purpose":"Removal of restrictive title condition C.3; rezoning from Community Zone III to Subdivisional Area for group housing (about 26 + 11 units), with remainder kept as Community Zone III (child and youth care centre)."}},{"type":"Feature","geometry":{"type":"Polygon","coordinates":[[[22.45179288165167,-34.01431298916993],[22.451582875439264,-34.01426998831987],[22.451340855736735,-34.014220991680936],[22.451064849147446,-34.01416599025705],[22.451001849494183,-34.01421298804245],[22.451038849717257,-34.014440982798085],[22.451079842700942,-34.01468597355918],[22.45110385571219,-34.014828967011724],[22.451162859740183,-34.01488596166699],[22.451397859736502,-34.014939966809884],[22.45160686325647,-34.01498896488408],[22.451699872834528,-34.01465097662434],[22.45179288165167,-34.01431298916993]]]},"properties":{"town":"GEORGE","parcel_num":"7379","zoning":"Single Residential Zone I","allotment":"PACALTSDORP","sg21cde":"C02700070000737900000","place":"Pacaltsdorp","summary":"Rezoning from Single Residential Zone I to Business Zone II for shops, plus consent use for a service station (filling station with convenience/line shops).","purpose":"Rezoning from Single Residential Zone I to Business Zone II for shops, plus consent use for a service station (filling station with convenience/line shops).","source":"George mun","url":"https://www.george.gov.za/wp-content/uploads/2026/08/Combined-Rezoning-Application-7379PacaltsdorpRezoning.pdf","mun_zoning":"Single Residential Zone I","mun_town":"GEORGE","mun_allotment":"PACALTSDORP","erf":"7379"}},{"type":"Feature","geometry":{"type":"Polygon","coordinates":[[[22.482919397980385,-33.96052741238525],[22.483050224784023,-33.960296891609346],[22.48272038119242,-33.96016742285324],[22.48259037914171,-33.96039741755268],[22.482919397980385,-33.96052741238525]]]},"properties":{"town":"GEORGE","parcel_num":"9192","zoning":"Single Residential Zone I","allotment":"GEORGE","sg21cde":"C02700020000919200000","place":"George","summary":"Rezoning from Single Residential Zone I to General Residential Zone I (double dwelling house), plus permanent departures for \u00b112% floor-space deviation between units and building-line relaxations on Unit 2.","purpose":"Rezoning from Single Residential Zone I to General Residential Zone I (double dwelling house), plus permanent departures for \u00b112% floor-space deviation between units and building-line relaxations on Unit 2.","source":"George mun","url":"https://www.george.gov.za/wp-content/uploads/2026/04/George_Erf_9192_Merged_Application.pdf","mun_zoning":"Single Residential Zone I","mun_town":"GEORGE","mun_allotment":"GEORGE","erf":"9192"}},{"geometry":{"type":"Polygon","coordinates":[[[22.466781446011893,-33.944971056132324],[22.466523355547572,-33.94476001804702],[22.466353421445167,-33.94462106883776],[22.466187788703323,-33.94476389061],[22.466089545567574,-33.94484859555305],[22.466162361536124,-33.94488092355073],[22.466339705152883,-33.944958755631895],[22.466576059995557,-33.94518691903921],[22.466660795365637,-33.94508404987868],[22.466781446011893,-33.944971056132324]]]},"type":"Feature","properties":{"town":"GEORGE","parcel_num":"11730","zoning":"Single Residential Zone I","allotment":"GEORGE","sg21cde":"C02700020001173000000","erf":"11730","place":"George","summary":"Subdivision plus permanent departures for building-line relaxations on the remainder (including street and common boundaries for new additions).","source":"George mun","url":"https://www.george.gov.za/planning-and-develop/gm-notice-of-land-use-application-for-erf-11730-george/","mun_zoning":"Single Residential Zone I","mun_town":"GEORGE","mun_allotment":"GEORGE","purpose":"Subdivision plus permanent departures for building-line relaxations on the remainder (including street and common boundaries for new additions)."}},{"type":"Feature","geometry":{"type":"Polygon","coordinates":[[[22.46558852477565,-33.95497775460399],[22.465481519417033,-33.95491675633547],[22.465439014154303,-33.95496982742553],[22.46539476729008,-33.95502424772854],[22.46536650914999,-33.95505873897463],[22.46551352523922,-33.95514174866911],[22.465629527534286,-33.954999748563765],[22.46558852477565,-33.95497775460399]]]},"properties":{"town":"GEORGE","parcel_num":"15509","zoning":"General Residential Zone II","allotment":"GEORGE","sg21cde":"C02700020001550900000","place":"George","summary":"Permanent departures for building-line relaxations (street and side boundaries) to accommodate proposed carports and conversion of the existing garage into a bedroom and laundry.","purpose":"Permanent departures for building-line relaxations (street and side boundaries) to accommodate proposed carports and conversion of the existing garage into a bedroom and laundry.","source":"George mun","url":"https://www.george.gov.za/wp-content/uploads/2024/08/Erf-15509-George-Complete-application.pdf","mun_zoning":"General Residential Zone II","mun_town":"GEORGE","mun_allotment":"GEORGE","erf":"15509"}},{"geometry":{"type":"Polygon","coordinates":[[[22.475651356461366,-33.98278978078799],[22.475606357197,-33.982680790039666],[22.475459590080483,-33.982720102688496],[22.475426230395097,-33.98272961574859],[22.475422643147176,-33.98272094767117],[22.475389272475244,-33.982730486818426],[22.475337343923613,-33.982746787558966],[22.47538634686443,-33.982864783622006],[22.475651356461366,-33.98278978078799]]]},"type":"Feature","properties":{"town":"GEORGE","parcel_num":"16899","zoning":"Single Residential Zone I","allotment":"GEORGE","sg21cde":"C02700020001689900000","erf":"16899","place":"George","summary":"Consent use for small-scale rental housing (6 rooms), plus permanent departure for building-line relaxations (street and side boundaries).","source":"George mun","url":"https://www.george.gov.za/planning-and-develop/gm-notice-of-land-use-application-for-erf-16899-george/","mun_zoning":"Single Residential Zone I","mun_town":"GEORGE","mun_allotment":"GEORGE","purpose":"Consent use for small-scale rental housing (6 rooms), plus permanent departure for building-line relaxations (street and side boundaries)."}},{"geometry":{"type":"Polygon","coordinates":[[[22.43256097624128,-33.95286912124615],[22.43255297907583,-33.95281311883336],[22.432314978463385,-33.952834126797455],[22.432365979950568,-33.95323711396131],[22.432604982318967,-33.95321611142513],[22.43258398296282,-33.95305511470051],[22.43256097624128,-33.95286912124615]]]},"type":"Feature","properties":{"town":"GEORGE","parcel_num":"17686","zoning":"Single Residential Zone I","allotment":"GEORGE","sg21cde":"C02700020001768600000","erf":"17686","place":"George","summary":"Subdivision of Erf 17686, George.","source":"George mun","url":"https://www.george.gov.za/planning-and-develop/gm-notice-of-land-use-application-for-erf-17686-george/","mun_zoning":"Single Residential Zone I","mun_town":"GEORGE","mun_allotment":"GEORGE","purpose":"Subdivision of Erf 17686, George."}},{"type":"Feature","geometry":{"type":"Polygon","coordinates":[[[22.427026629549683,-33.94528740257735],[22.426635595269886,-33.94466943307899],[22.426593603138727,-33.944680437115494],[22.42655259953587,-33.94469243020435],[22.426205572464436,-33.94478543977038],[22.42616456350844,-33.94479644193139],[22.426124573278805,-33.945019437263575],[22.426083574656825,-33.945242435084886],[22.426043566976507,-33.945464419684676],[22.426002568988654,-33.94568741836509],[22.425961569708853,-33.94591041521354],[22.42593256029171,-33.946072633243716],[22.426000640663492,-33.94614340463178],[22.426335648808923,-33.946493350311435],[22.4264356636061,-33.94661137929222],[22.426648669871184,-33.946862376162656],[22.426804680851056,-33.94704636222642],[22.426870689464504,-33.947123361114606],[22.427101694393777,-33.947125362201724],[22.427393681873447,-33.94712646912737],[22.42744896364272,-33.94717177800005],[22.427452712376226,-33.947314350393604],[22.427460723627636,-33.94759934430145],[22.42746171755938,-33.947637337252935],[22.4274776902062,-33.94821931323019],[22.42774096338314,-33.948493357661896],[22.427871274427083,-33.948629400763245],[22.427978789032338,-33.94874213714014],[22.427975729709086,-33.948645300389636],[22.427619387146905,-33.94827356399345],[22.427614688851328,-33.9480863159026],[22.42760768564747,-33.947852325802515],[22.427601684388176,-33.94761733335212],[22.4275956764595,-33.9473833406495],[22.42758951274766,-33.94717246043352],[22.42764237425998,-33.94712767518796],[22.42793471060953,-33.94712886539236],[22.427931625174725,-33.947012337451476],[22.427639187633922,-33.947010486857465],[22.427583926592984,-33.946965152021264],[22.427578657038193,-33.94677534992691],[22.427571654697157,-33.94652735734011],[22.427327645147347,-33.94627137304831],[22.427127625180027,-33.94606337545016],[22.426924630057844,-33.94585138796389],[22.427026629549683,-33.94528740257735]],[[22.426245589571803,-33.94513442611165],[22.426282635230173,-33.944929956824915],[22.42634221043479,-33.94487159132007],[22.426546292955077,-33.944816828928566],[22.426623018218248,-33.94484286344517],[22.426725612500583,-33.94500542319684],[22.426889235510803,-33.945263502880906],[22.426906387162415,-33.94534792102617],[22.42689962097216,-33.94538440568447],[22.426859620453587,-33.94560740209726],[22.426818624521818,-33.945830400164034],[22.426810402505183,-33.94587652973161],[22.426851623101566,-33.945919390684296],[22.427020636789827,-33.946095387338794],[22.427189645622835,-33.946272373608835],[22.427343651527913,-33.946433372585844],[22.42746471065167,-33.94655946898366],[22.427469662467626,-33.946754358702],[22.42747569761942,-33.94696468300094],[22.427422848208725,-33.94700944028526],[22.427143649301414,-33.947008352371874],[22.426943411833804,-33.94700694174305],[22.426808637869062,-33.946848359553314],[22.42665262831118,-33.94666437439883],[22.426495616940088,-33.94647937918107],[22.42644796486971,-33.94642288508392],[22.42633061091715,-33.946300390311464],[22.42614959506493,-33.94611139092003],[22.426080705582933,-33.946039473613126],[22.426124586703665,-33.94579740133366],[22.426165585452107,-33.94557441163381],[22.426205587748537,-33.94535141726683],[22.426245589571803,-33.94513442611165]]]},"properties":{"town":"GEORGE","parcel_num":"19374","zoning":"Transport Zone II","allotment":"GEORGE","sg21cde":"C02700020001937400000","place":"George","summary":"Follow-up to estate-housing approval on Erf 19374 (ex Erven 6156/6179/19372/19373, Heather Park): SDP, architectural guidelines and HOA constitution approvals; permanent departure reducing flat parking from 80 to 60 bays; deletion of approval condition 13.","purpose":"Follow-up to estate-housing approval on Erf 19374 (ex Erven 6156/6179/19372/19373, Heather Park): SDP, architectural guidelines and HOA constitution approvals; permanent departure reducing flat parking from 80 to 60 bays; deletion of approval condition 13.","source":"George mun","url":"https://www.george.gov.za/wp-content/uploads/2026/08/Erf-19374-George_LUA-Part-I-1.pdf","mun_zoning":"Transport Zone II","mun_town":"GEORGE","mun_allotment":"GEORGE","erf":"19374"}},{"geometry":{"type":"Polygon","coordinates":[[[22.466507704776372,-33.965135416364454],[22.46635669176983,-33.96505542959507],[22.46608167653151,-33.965413416577704],[22.465807761249916,-33.96577231011011],[22.46595788765152,-33.9658521431466],[22.46610968227553,-33.965932397936875],[22.46622370325585,-33.965993398105354],[22.46629785889528,-33.96598024284884],[22.466542712226637,-33.96565840281944],[22.466786911884085,-33.965337678232814],[22.46677071484897,-33.96527542020106],[22.466658709327287,-33.96521541643515],[22.466507704776372,-33.965135416364454]]]},"type":"Feature","properties":{"town":"GEORGE","parcel_num":"19695","zoning":"Business Zone I","allotment":"GEORGE","sg21cde":"C02700020001969500000","erf":"19695","place":"George","summary":"Consent use (gambling place) on an existing business site to allow 15 limited payout machines (LPMs).","source":"George mun","url":"https://www.george.gov.za/planning-and-develop/gm-notice-of-land-use-application-for-erf-19695-george/","mun_zoning":"Business Zone I","mun_town":"GEORGE","mun_allotment":"GEORGE","purpose":"Consent use (gambling place) on an existing business site to allow 15 limited payout machines (LPMs)."}},{"type":"Feature","geometry":{"type":"Polygon","coordinates":[[[22.498485439211088,-33.98712175428199],[22.49855985962169,-33.98698087954842],[22.498200547144766,-33.98466169619483],[22.497867192126854,-33.9848387534564],[22.49774556437823,-33.98490335402794],[22.497612688387004,-33.98497392800316],[22.496661570184205,-33.98547914835347],[22.496404711071538,-33.985615585482826],[22.49618937344142,-33.98572996691288],[22.496088092298496,-33.98578376417924],[22.49590022918317,-33.98588355111487],[22.49563825427289,-33.986022702678795],[22.49575934695025,-33.98618301506633],[22.49588038100529,-33.9863432513649],[22.49600141768742,-33.98650348575025],[22.496122453733886,-33.98666372091351],[22.49624349023239,-33.98682395595765],[22.496364527177487,-33.986984191784195],[22.496485564579913,-33.98714442659012],[22.49660660243425,-33.98730466127691],[22.496727635313434,-33.98746489852692],[22.49685386183841,-33.987632024673466],[22.496928818805575,-33.987731227910665],[22.496952250942353,-33.98776224044029],[22.49704986048491,-33.987891461268596],[22.497163941556188,-33.988042498503034],[22.497170876839014,-33.98805166104572],[22.49729006428447,-33.98820934429959],[22.49742680069273,-33.9881297514721],[22.49782854285743,-33.98750312254107],[22.498485439211088,-33.98712175428199]]]},"properties":{"town":"GEORGE","parcel_num":"28005","zoning":"Business Zone I","allotment":"GEORGE","sg21cde":"C02700000002800500000","place":"George","summary":"Rezoning from Business Zone I to General Residential Zone IV for \u00b1680 rental flats (18 blocks); removal of restrictive title condition G; permanent departure relaxing parking to about 1.28 bays per flat.","purpose":"Rezoning from Business Zone I to General Residential Zone IV for \u00b1680 rental flats (18 blocks); removal of restrictive title condition G; permanent departure relaxing parking to about 1.28 bays per flat.","source":"George mun","url":"https://www.george.gov.za/wp-content/uploads/2026/08/Erf-28005-George-Complete-application-Part-1-Aug-2026.pdf","mun_zoning":"Business Zone I","mun_town":"GEORGE","mun_allotment":"GEORGE","erf":"28005"}},{"type":"Feature","geometry":{"type":"Polygon","coordinates":[[[22.67687480328415,-33.99837614241072],[22.679136427533596,-33.99928358799844],[22.67931771824456,-33.99785528510361],[22.679481646497802,-33.99635528664032],[22.67963344554108,-33.99496624023825],[22.677702349934666,-33.99458425739352],[22.67687480328415,-33.99837614241072]]]},"properties":{"town":"GEORGE","parcel_num":"RE/3/191","zoning":"Agricultural Zone I","allotment":"GEORGE","sg21cde":"C02700000000019100003","place":"Boven Lange Valley (near Wilderness)","summary":"Consent use (with related rezoning/departure) for a sand mine / quarry on the Remainder of Portion 3 of Farm 191, Boven Lange Valley (Kleinkrantz area, opposite Heritage Bakery).","purpose":"Consent use (with related rezoning/departure) for a sand mine / quarry on the Remainder of Portion 3 of Farm 191, Boven Lange Valley (Kleinkrantz area, opposite Heritage Bakery).","source":"George mun","url":"https://www.george.gov.za/wp-content/uploads/2026/03/Pr-1916-F-191-Ptn-3-Full-Consent-Use-motivation_compressed.pdf","mun_zoning":"Agricultural Zone I","mun_town":"GEORGE","mun_allotment":"GEORGE","farm":"Farm191-Ptn3-BovenLangeValley","erf":"Farm191-Ptn3-BovenLangeValley"}},{"type":"Feature","geometry":{"type":"Polygon","coordinates":[[[22.512767425771845,-34.00509308207005],[22.51241082181727,-34.005143966137354],[22.512305588798615,-34.00518747814347],[22.51220708822583,-34.00521819897117],[22.512173260537097,-34.00520459704285],[22.511983621475565,-34.005138616385324],[22.51176691258873,-34.00503774021379],[22.51163142084896,-34.00498026517981],[22.511442239450773,-34.00491316131344],[22.511334650277092,-34.00489438805941],[22.511145058571238,-34.00486779723524],[22.510955521855937,-34.00485259611836],[22.510866461529123,-34.00483402503547],[22.51065781925822,-34.00485185123441],[22.510333120254742,-34.004907031125455],[22.510042597190072,-34.00504357667346],[22.509780277472544,-34.005175179116144],[22.509731205808045,-34.005186223671636],[22.509366307785942,-34.00556842779957],[22.507817108180163,-34.007184053140584],[22.506930412072816,-34.00810831862572],[22.507022785915364,-34.008162370637294],[22.50702836944884,-34.00818898778052],[22.507060330600574,-34.008184337826705],[22.507126709632928,-34.00810581119509],[22.507217100200396,-34.00815877780097],[22.50729677990057,-34.00820546564119],[22.507376458600614,-34.00825215432744],[22.507460834720288,-34.0083016068926],[22.507657951643278,-34.008228291303965],[22.50760707850324,-34.00813360863127],[22.507713936021208,-34.00809382866071],[22.507814047519023,-34.008085890248076],[22.50791103450781,-34.00807819979266],[22.508008021480027,-34.00807050926062],[22.508105007353226,-34.008062818647566],[22.508201994292413,-34.00805512796218],[22.508298981215102,-34.008047437200226],[22.508395968095293,-34.00803975086907],[22.50849295391796,-34.008032057245025],[22.508562475645284,-34.00802654277354],[22.508554382229526,-34.00795560247393],[22.508542496619828,-34.007851429704104],[22.508533106861204,-34.00776913231197],[22.508663735877526,-34.00775878998364],[22.508771227514213,-34.0077502798578],[22.508889740885152,-34.00774089680051],[22.50890051176426,-34.00783512946431],[22.508911057001885,-34.007927380590814],[22.508919628631016,-34.00800236608437],[22.50895162536432,-34.008071997223915],[22.508956192669388,-34.008081935756685],[22.509136468585787,-34.0080841833746],[22.50927417542379,-34.008085900299136],[22.509388040459637,-34.00808732003694],[22.50951493049605,-34.00808890159297],[22.50962756372881,-34.00809030537903],[22.509721910234372,-34.00809148111379],[22.509803538348763,-34.00804686038218],[22.509884986109682,-34.00800233894559],[22.50996643161588,-34.00795781834685],[22.510047877058156,-34.007913294087075],[22.51012932456003,-34.007868773386946],[22.51021077198249,-34.00782425173031],[22.51029221606251,-34.007779731808704],[22.510373663315708,-34.0077352100421],[22.510455109396627,-34.007690689117624],[22.51053655539298,-34.007646168138145],[22.510617999165497,-34.007601642587694],[22.510705429437564,-34.00755385566523],[22.510822239026542,-34.007529271588474],[22.51092067567989,-34.007508553982056],[22.510983247784967,-34.007542015574586],[22.511065226161104,-34.00758585591863],[22.511178497239598,-34.007646429230995],[22.511206753000163,-34.00775316943056],[22.51123497281031,-34.00785977244852],[22.51115849100337,-34.00796008961833],[22.511106269798628,-34.00802858493257],[22.51105404851478,-34.008097079321665],[22.51100186967908,-34.00816551886357],[22.510949647139125,-34.00823401410249],[22.510897425597364,-34.00830250932209],[22.510845203971265,-34.00837100451803],[22.510792982260934,-34.00843949969028],[22.510740760466376,-34.00850799483882],[22.510664089889865,-34.00860855704855],[22.510527949783974,-34.00864530755262],[22.510435270971172,-34.008670325452016],[22.510321481557394,-34.00870104157484],[22.51020952099517,-34.008695650080796],[22.510112258172242,-34.00869096250936],[22.51001499425786,-34.00868627846282],[22.509917703297717,-34.00868159333013],[22.509820439401405,-34.008676910031475],[22.509723175521927,-34.00867222575438],[22.509625911654126,-34.00866754140053],[22.509528651040277,-34.00866285788427],[22.509431387195768,-34.00865817337675],[22.509380703377648,-34.00865573275814],[22.50929703832089,-34.00870071379542],[22.509213367748256,-34.00874569745755],[22.509129772013807,-34.008790640792405],[22.50908675466475,-34.0088137679328],[22.509067124151,-34.00883558564118],[22.509008052789813,-34.00890123726437],[22.508948981342694,-34.00896688795622],[22.50888991197966,-34.009032536823824],[22.508830844706043,-34.00909818296575],[22.508771776248302,-34.009163830876446],[22.50871270988001,-34.00922947606141],[22.508653637976796,-34.009295126603945],[22.508594570338442,-34.00936077262636],[22.50848807294415,-34.00947913104104],[22.507683792298174,-34.01064784185691],[22.507183882397918,-34.01036255708115],[22.506315248278415,-34.00993505865062],[22.506284122954234,-34.00986737221897],[22.506492134133513,-34.00952865592766],[22.50636445037904,-34.009462963870845],[22.50624922263584,-34.00941463351875],[22.506151395627064,-34.009373601289035],[22.506062755507656,-34.00933642199614],[22.50595296761184,-34.009290372414036],[22.505841017859336,-34.00924341613778],[22.50571883892954,-34.009372160426956],[22.50624099987321,-34.00959115815538],[22.506038145436225,-34.00980244723846],[22.50552804539128,-34.009571115701405],[22.505406779474846,-34.00969756807685],[22.507012783686797,-34.01052274626652],[22.50701412060801,-34.01052349988417],[22.507893103994494,-34.011019248083066],[22.50986102309412,-34.01225659031798],[22.50996265022165,-34.01244355068074],[22.51011040769332,-34.0127352553435],[22.510203532623656,-34.01295590017061],[22.510284056825977,-34.01314542577395],[22.510329543968965,-34.013310932455866],[22.51036012219492,-34.01336248843395],[22.510408360576776,-34.01342330025863],[22.510434583482265,-34.01346205987913],[22.510476327589846,-34.013508150200344],[22.510522285684203,-34.01354754818903],[22.51052899662258,-34.01367903588802],[22.510540232461505,-34.01385982030407],[22.510600882578625,-34.01405110387982],[22.510661737298108,-34.01418488408563],[22.510696808090678,-34.014247320224754],[22.51081455677666,-34.014366950191715],[22.511010896183297,-34.014550547723246],[22.511096774339798,-34.01464537168409],[22.51119015733916,-34.014711473337954],[22.511244459166704,-34.01475234213319],[22.511354602917084,-34.01489654104585],[22.511469867742917,-34.01503053700011],[22.511585202285712,-34.01515223282827],[22.511705369766833,-34.01526979534916],[22.511855342257185,-34.01537517665753],[22.51200299448983,-34.015466092757045],[22.51218419629027,-34.01555394677538],[22.512427954458737,-34.015655546041714],[22.512568294256926,-34.01571983593044],[22.512752905914535,-34.01580890074192],[22.51279959496921,-34.0158316082894],[22.51286359080292,-34.01588121981439],[22.5129297018231,-34.01595951151805],[22.513064825607522,-34.01607305888687],[22.513158924017223,-34.01616951143488],[22.513293920989963,-34.016305580638694],[22.513414174018656,-34.01640884557531],[22.513576504267782,-34.016522419779385],[22.513745907155815,-34.01666078098339],[22.513834556066442,-34.01671448318717],[22.514151803855217,-34.01691093229657],[22.514402673060502,-34.0170536874401],[22.514576009329986,-34.017123775856184],[22.51467925393804,-34.01717010746379],[22.514734332590418,-34.01718613829712],[22.514825809154146,-34.01718793711328],[22.514931150669398,-34.017176851078545],[22.51504341613079,-34.01715005898817],[22.515136659747775,-34.01713030026408],[22.515250564859656,-34.017126436408645],[22.515228568913354,-34.017055987243005],[22.51517533496333,-34.017004741648975],[22.515137701389285,-34.016947089152765],[22.51511370449685,-34.01691688479369],[22.51510884315041,-34.01685944082225],[22.51510918644863,-34.016799062198224],[22.515118169485817,-34.01675461227572],[22.515178918596316,-34.016685926307204],[22.515256859215572,-34.01662018300279],[22.515321142215097,-34.01655294880882],[22.515338620836147,-34.01650557627368],[22.515344066907154,-34.01646015318006],[22.51531519683802,-34.016396864726964],[22.515272750577303,-34.01627322211136],[22.515201422748934,-34.01606608525707],[22.515165972945663,-34.01593592155997],[22.515089457426935,-34.01572884351539],[22.51503001660773,-34.015567756914635],[22.515014853441983,-34.0154973337365],[22.515011730640627,-34.01544564738002],[22.514989283052813,-34.01541017793197],[22.51496527074546,-34.01538276818012],[22.514921025049027,-34.015286354056634],[22.514849388130447,-34.015133844069936],[22.51480865808797,-34.015020271677685],[22.51477122963941,-34.014926759326826],[22.51475866493614,-34.01484436700628],[22.514741064831245,-34.01475764105838],[22.514735779060963,-34.01461921031119],[22.51472903819012,-34.01444730951046],[22.51473562559386,-34.01431243971466],[22.514759584519783,-34.014171249400704],[22.514794847657516,-34.01406700186337],[22.514822391268357,-34.01396304299966],[22.514847899609777,-34.01390532031775],[22.514898552947944,-34.01380920022555],[22.51497828137786,-34.01369554396699],[22.515079487193212,-34.01354339641572],[22.515161077625006,-34.01343613642442],[22.515188382977612,-34.01339607155275],[22.51519426773331,-34.01336239062909],[22.515217641859067,-34.013323906841464],[22.515256755419212,-34.01327669979699],[22.515386644404803,-34.01315349643995],[22.515547841359584,-34.01297594839391],[22.51565121409388,-34.012865100172846],[22.515699785887726,-34.01280107816542],[22.515705424602302,-34.01279562455217],[22.515744443837775,-34.01275788561034],[22.515777579396897,-34.01269380279468],[22.515779423849537,-34.012579430953956],[22.516085170186777,-34.01168616225525],[22.52255145788569,-34.01335497603208],[22.523225002044715,-34.01132854293153],[22.523442682369257,-34.01098374457372],[22.524240269187203,-34.00881474518018],[22.524164592000737,-34.00880560314449],[22.5239752423045,-34.008851296888785],[22.523758683459835,-34.008912626404744],[22.52352911378667,-34.008916515391775],[22.523297863439257,-34.0088676207589],[22.523155149964552,-34.00861732089863],[22.52302051587051,-34.008367075636215],[22.52292048109418,-34.008314048935425],[22.522660300864764,-34.008218607299305],[22.522471676409562,-34.00817022090867],[22.522227748447296,-34.00804220468924],[22.522015410330468,-34.007910283664],[22.521752714530788,-34.00773796869175],[22.52137725298717,-34.00750188457308],[22.52116050447326,-34.00741407062653],[22.520930907243834,-34.00733894290829],[22.520620051436076,-34.00724715898944],[22.520457510948102,-34.00720824064947],[22.520200241379182,-34.007161277102355],[22.51994294817548,-34.00711991135439],[22.51982107449821,-34.007111801599294],[22.51956377881309,-34.00709477243687],[22.519374744527394,-34.00708203655756],[22.519132511009126,-34.007029283184764],[22.518875559249583,-34.00697936383857],[22.518649894062303,-34.00691298476657],[22.51844247029268,-34.006816335197975],[22.518136237160338,-34.00662621107696],[22.517804669511555,-34.00637940399055],[22.517459537164225,-34.00609293188683],[22.517320760080896,-34.00598262124247],[22.517104555263888,-34.005869979892815],[22.516771124094863,-34.005756763211714],[22.516576089331515,-34.00570913866007],[22.51598241916886,-34.00553809576654],[22.515883760043852,-34.005421979614006],[22.5157812773674,-34.00533284339533],[22.515684227230842,-34.00526784860357],[22.51555458214576,-34.00520942725863],[22.51550463683806,-34.00517581487078],[22.51534508671412,-34.0051459140484],[22.51520109643527,-34.00512569895395],[22.514993995921724,-34.00512159743162],[22.51467749072471,-34.00511532854012],[22.514408285083945,-34.00511942100016],[22.514189764938155,-34.00511846982714],[22.514035072163914,-34.00511713126462],[22.513859666090582,-34.005115613285106],[22.51369664094494,-34.00510658296906],[22.513549828415215,-34.00509845135809],[22.513359098459272,-34.00508788663217],[22.51318825607038,-34.00507842263936],[22.51311589104938,-34.00507694352365],[22.512767425771845,-34.00509308207005]],[[22.512353474346273,-34.01128127159608],[22.513707756710772,-34.0110409662995],[22.514769691459342,-34.01086483687821],[22.51596763068269,-34.01160912937768],[22.51461596168866,-34.01316309222973],[22.51283913957351,-34.01423405723899],[22.511080575508423,-34.0130521602264],[22.509662715606044,-34.011370386628144],[22.510748362490236,-34.01150066888029],[22.512353474346273,-34.01128127159608]]]},"properties":{"town":"GEORGE","parcel_num":"197/204","zoning":"Agricultural Zone I","allotment":"GEORGE","sg21cde":"C02700000000019700204","place":"Sandkraal (Thembalethu East)","summary":"Subdivision and rezoning from Agricultural Zone I to Utility Zone for the Thembalethu East sewer pump station (TEPS), with associated servitudes, on Portion 204 of Farm Sandkraal No 197.","purpose":"Subdivision and rezoning from Agricultural Zone I to Utility Zone for the Thembalethu East sewer pump station (TEPS), with associated servitudes, on Portion 204 of Farm Sandkraal No 197.","source":"George mun","url":"https://www.george.gov.za/wp-content/uploads/2026/08/Pr2627-Sewer-Pump-Station-Thembalethu-East_Report_pg-1-76.pdf","mun_zoning":"Agricultural Zone I","mun_town":"GEORGE","mun_allotment":"GEORGE","farm":"Farm197-Ptn204-Sandkraal","erf":"Farm197-Ptn204-Sandkraal"}},{"type":"Feature","geometry":{"type":"Polygon","coordinates":[[[22.39335871583636,-33.99933137199554],[22.392876765522114,-33.999371186067464],[22.392907980596117,-33.99957342129705],[22.39286602413461,-33.999597824615954],[22.3928268420517,-33.99965977427141],[22.392800812242818,-33.999695703577075],[22.392765805925343,-33.999710658159174],[22.39268265287537,-33.99974254524788],[22.392604889440424,-33.999781981108754],[22.392521348109113,-33.99977837994693],[22.392481278717533,-33.999762401100384],[22.392464019090138,-33.99973574198847],[22.39244542653663,-33.99969394981831],[22.39238593763506,-33.999662339271254],[22.39228961953344,-33.99963201893238],[22.392229068159786,-33.99963744259005],[22.39217788580371,-33.99963089535297],[22.39212126192973,-33.99962423736534],[22.392092938971306,-33.99962238002588],[22.3920652107585,-33.99962698495371],[22.391927701415867,-33.99967103204543],[22.39180501415587,-33.99970174227051],[22.391668730415056,-33.999708508588824],[22.39156275911655,-33.99970741204428],[22.39155172591376,-33.999705476919694],[22.391538390470902,-33.99968987520294],[22.39153317346226,-33.999658124285716],[22.39152522548408,-33.999627749991866],[22.391511528948243,-33.99961770701281],[22.391491682488645,-33.999617036383036],[22.39143986795903,-33.99963190744315],[22.391342116170204,-33.99964573172922],[22.391278464545653,-33.99965907198419],[22.39116827517331,-33.99971077472296],[22.391112812503923,-33.99974328911229],[22.391057011008773,-33.999755931571386],[22.390996746367694,-33.999743450207845],[22.390933299953268,-33.999728172798534],[22.390901752508995,-33.999729651943426],[22.39085142813544,-33.99973741630092],[22.39081146283578,-33.999751935580825],[22.390786005273227,-33.9997524640082],[22.390701041621988,-33.99974615634142],[22.390666755008755,-33.999750156009235],[22.39063346553186,-33.99977124966932],[22.39060523171594,-33.99980177293835],[22.390569403512004,-33.99981974739391],[22.390506302208646,-33.999823441090506],[22.390360942712793,-33.99977832224679],[22.390263738311265,-33.99976017896687],[22.39018919926124,-33.99977387307708],[22.390071683311024,-33.99984254643401],[22.389960848842243,-33.99991697560851],[22.389817901774403,-33.99993760814394],[22.389673836161318,-34.00000263262403],[22.389625398767237,-33.999992908394525],[22.389494963173647,-34.00007721601772],[22.38935461993169,-33.99997503444174],[22.38742735992534,-34.00004271842994],[22.386463058025285,-34.00056377089631],[22.386286053340683,-34.000940756560524],[22.38702204469468,-34.001142027612744],[22.387780113589884,-34.001271761924684],[22.389026172854166,-34.00133377322564],[22.38941162777918,-34.00135316827343],[22.390267018160895,-34.001467390112886],[22.39106055224269,-34.00175530332788],[22.391742571521824,-34.002198618020714],[22.39230430410261,-34.0028197655746],[22.40002647655896,-33.997316707738115],[22.40142112470246,-33.99664002655569],[22.40018305779359,-33.99521808875436],[22.400121045542708,-33.99525509101352],[22.397751745119436,-33.99677796170554],[22.396582431946342,-33.9955161854011],[22.39423796045912,-33.997042256895874],[22.394328795369375,-33.997709913631226],[22.39467742430654,-33.99770433812121],[22.394675395658737,-33.997808296882035],[22.394671973959362,-33.99788448580538],[22.394676733626593,-33.998025882622855],[22.39467238666813,-33.998097161860876],[22.394649604767917,-33.998194350908236],[22.394617311945098,-33.998278411298344],[22.39460931465154,-33.9983224441852],[22.39461953244298,-33.99837171795179],[22.39468418587857,-33.99848748919498],[22.394743887979637,-33.99862441437345],[22.394760408617724,-33.99873275377868],[22.39476084561398,-33.99880650866228],[22.394617676710748,-33.99877872727606],[22.39444892111735,-33.99899380802532],[22.3942580527129,-33.99913702106784],[22.39370813751909,-33.999282340373405],[22.39335871583636,-33.99933137199554]]]},"properties":{"town":"GEORGE","parcel_num":"RE/110/208","zoning":"Agricultural Zone I","allotment":"GEORGE","sg21cde":"C02700000000020800110","place":"Gwayang (George Rural / airport area)","summary":"Subdivision and rezoning from Agricultural Zone I to Subdivisional Area, then Industrial Zone I (airport support / warehousing), Utility Zone (WWTW), Open Space Zone II and Agriculture Zone I remainder \u2014 Portion 110 of Farm Gwayang No 208.","purpose":"Subdivision and rezoning from Agricultural Zone I to Subdivisional Area, then Industrial Zone I (airport support / warehousing), Utility Zone (WWTW), Open Space Zone II and Agriculture Zone I remainder \u2014 Portion 110 of Farm Gwayang No 208.","source":"George mun","url":"https://www.george.gov.za/wp-content/uploads/2026/08/Gwayang-F208Ptn110-Rez-report-pg-1-144.pdf","mun_zoning":"Agricultural Zone I","mun_town":"GEORGE","mun_allotment":"GEORGE","farm":"Farm208-Ptn110-Gwayang","erf":"Farm208-Ptn110-Gwayang"}},{"type":"Feature","geometry":{"type":"Polygon","coordinates":[[[22.4836885569275,-33.96890419660674],[22.483685714766274,-33.9688982382443],[22.483684124932267,-33.96889489414018],[22.4835925230428,-33.96870215927946],[22.4835425793041,-33.96877179602373],[22.48345346789915,-33.968777122368095],[22.483597061057193,-33.9689162537307],[22.483701137766953,-33.96909091040891],[22.4837998333721,-33.96925653732065],[22.483915774071857,-33.96945110229762],[22.48396268908011,-33.96952983239825],[22.484091448175597,-33.96974590807437],[22.48418802328755,-33.96990797197671],[22.484168665395753,-33.96997630823662],[22.48415673468785,-33.97001845756566],[22.484138778484507,-33.97016053877023],[22.484119463191828,-33.970313369426556],[22.484122022211388,-33.970340964015634],[22.484136583948082,-33.97049798991243],[22.484157623124997,-33.970724854994636],[22.48419006834598,-33.97107463986938],[22.484232451504,-33.97153121824752],[22.484220600563354,-33.971552058639155],[22.48440495280675,-33.971645860048135],[22.48426360821992,-33.971838044665],[22.484448346988717,-33.971932275850634],[22.48428461682719,-33.97215503465987],[22.48443162617201,-33.97223003967392],[22.484991239645144,-33.97143298288021],[22.484956121326633,-33.971360715079946],[22.484077653526032,-33.969552911040125],[22.4836885569275,-33.96890419660674]]],"crs":null},"properties":{"erf":"3645; RE/8662; RE/8581; RE/464; RE/8596; RE/23074","place":"Rosemoor, George","summary":"Final Basic Assessment Report for bulk sewerage pipeline, sewerage by-pass pipeline and stormwater outlets (DEA&DP 16/3/3/1/D2/47/0013/26). FBAR submitted to DEA&DP 7 Aug 2026.","purpose":"Final Basic Assessment Report for bulk sewerage pipeline, sewerage by-pass pipeline and stormwater outlets (DEA&DP 16/3/3/1/D2/47/0013/26). FBAR submitted to DEA&DP 7 Aug 2026.","source":"SESCC","url":"https://sescc.net/eia-report/16-3-3-1-d2-47-0013-26-final-basic-assessment-report-for-the-proposed-installation-of-a-bulk-sewerage-pipeline-sewerage-by-pass-pipeline-and-stormwater-outlets-on-re-8662-street-parcel-re-8581-re/","source_type":"EAP","parcel_num":"3645","allotment":"GEORGE","town":"GEORGE","zoning":"Open Space Zone I","sg21cde":"C02700020000364500000","title":"Final BAR \u2014 Rosemoor bulk sewerage pipeline, by-pass & stormwater outlets","map_id":"eap-3645; RE/8662; RE/8581; RE/464; RE/8596; RE/23074-0"}},{"type":"Feature","geometry":{"type":"Polygon","coordinates":[[[22.39150370030308,-34.0527087623073],[22.3914481673476,-34.052625302883804],[22.39129651452762,-34.052699956558875],[22.39135422834227,-34.05278043475431],[22.39150370030308,-34.0527087623073]]],"crs":null},"properties":{"erf":"116; 110; 113; 114; RE/95; Farm 386; RE Farms 236 & 237; Portions 0,10,35,37 of Farm Brakfontein 236","place":"Herold's Bay, George","summary":"Final BAR for upgrading Herolds Bay PS1, new PS4 and associated rising mains/infrastructure (DEA&DP 16/3/3/1/D2/29/0003/26). Submitted for decision-making.","purpose":"Final BAR for upgrading Herolds Bay PS1, new PS4 and associated rising mains/infrastructure (DEA&DP 16/3/3/1/D2/29/0003/26). Submitted for decision-making.","source":"SESCC","url":"https://sescc.net/eia-report/the-proposed-upgrading-of-the-herolds-bay-sewage-pump-station-1-and-associated-rising-main-and-the-development-of-pump-station-4-and-new-associated-infrastructure-on-erf-116-erf-110-erf-11/","source_type":"EAP","parcel_num":"116","allotment":"HEROLDS BAY","town":"GEORGE","zoning":"Transport Zone II","sg21cde":"C02700040000011600000","title":"Final BAR \u2014 Herolds Bay sewage pump station 1 upgrade, PS4 & rising mains","map_id":"eap-116; 110; 113; 114; RE/95; Farm 386; RE Farms 236 & 237; Portions 0,10,35,37 of Farm Brakfontein 236-1"}},{"type":"Feature","geometry":{"type":"Polygon","coordinates":[[[22.454564416749406,-34.01137372842593],[22.454568989912502,-34.01133217988629],[22.454383039608334,-34.011343165891105],[22.454150966747395,-34.01135317794547],[22.45404804143817,-34.012212096659695],[22.454138113560163,-34.01221844823144],[22.454089712777535,-34.012169281205175],[22.45410239875335,-34.01206467172866],[22.454120227823754,-34.011917623761704],[22.454138393703108,-34.01176868410351],[22.45415667815201,-34.01161812223946],[22.45417199509675,-34.01149143732473],[22.45418239005614,-34.01140647066931],[22.45424188159662,-34.011363371824466],[22.454564416749406,-34.01137372842593]]],"crs":null},"properties":{"erf":"325","place":"Pacaltsdorp, George","summary":"Draft BAR for temporary stockpile/construction camp sites and geotechnical Phase 2 assessment for Rand Street and Rosedale Main Extension on Erf 325, Pacaltsdorp (George Municipality). Documents dated Sep 2026.","purpose":"Draft BAR for temporary stockpile/construction camp sites and geotechnical Phase 2 assessment for Rand Street and Rosedale Main Extension on Erf 325, Pacaltsdorp (George Municipality). Documents dated Sep 2026.","source":"HilLand","url":"https://hilland.co.za/public-processes/erf-325/","source_type":"EAP","parcel_num":"325","allotment":"PACALTSDORP","town":"GEORGE","zoning":"Transport Zone II","sg21cde":"C02700070000032500000","title":"Draft BAR \u2014 George Municipal temporary stockpile / construction camp & geotech (Rand St & Rosedale Main Ext)","map_id":"eap-325-HilLand"}},{"type":"Feature","geometry":{"type":"Polygon","coordinates":[[[22.454564416749406,-34.01137372842593],[22.454568989912502,-34.01133217988629],[22.454383039608334,-34.011343165891105],[22.454150966747395,-34.01135317794547],[22.45404804143817,-34.012212096659695],[22.454138113560163,-34.01221844823144],[22.454089712777535,-34.012169281205175],[22.45410239875335,-34.01206467172866],[22.454120227823754,-34.011917623761704],[22.454138393703108,-34.01176868410351],[22.45415667815201,-34.01161812223946],[22.45417199509675,-34.01149143732473],[22.45418239005614,-34.01140647066931],[22.45424188159662,-34.011363371824466],[22.454564416749406,-34.01137372842593]]],"crs":null},"properties":{"erf":"RE/325","place":"Pacaltsdorp, George","summary":"External environmental audit report (19 Jan 2026) for Pacaltsdorp reservoir and water tower on Remainder of Erf 325.","purpose":"External environmental audit report (19 Jan 2026) for Pacaltsdorp reservoir and water tower on Remainder of Erf 325.","source":"HilLand","url":"https://hilland.co.za/public-processes/pacaltsdorp-east-reservoir/","source_type":"EAP","parcel_num":"325","allotment":"PACALTSDORP","town":"GEORGE","zoning":"Transport Zone II","sg21cde":"C02700070000032500000","title":"External audit \u2014 Pacaltsdorp East Reservoir & water tower","map_id":"eap-RE/325-3"}},{"type":"Feature","geometry":{"type":"Polygon","coordinates":[[[22.475163063541846,-33.99276750905197],[22.47579846400177,-33.9926414262055],[22.475989502227364,-33.99260347384327],[22.475698094915384,-33.99214561521035],[22.475622652509617,-33.9921226800052],[22.475136396421327,-33.99228589178227],[22.47487639285086,-33.99237320139452],[22.47482651156149,-33.99245140883221],[22.474866451101747,-33.99260677023762],[22.474936456437916,-33.99281247359675],[22.475057778975202,-33.99278840060598],[22.475028202031346,-33.992703988778544],[22.475132914830773,-33.99268119440981],[22.475163063541846,-33.99276750905197]]],"crs":null},"properties":{"erf":"11221","place":"Parkdene, George","summary":"External environmental audit for Erf 11221 filling station (Parkdene).","purpose":"External environmental audit for Erf 11221 filling station (Parkdene).","source":"HilLand","url":"https://hilland.co.za/public-processes/parkdene-fillling-station/","source_type":"EAP","parcel_num":"11221","allotment":"GEORGE","town":"GEORGE","zoning":"Business Zone IV","sg21cde":"C02700020001122100000","title":"External audit \u2014 Erf 11221 Parkdene filling station","map_id":"eap-11221-4"}},{"type":"Feature","geometry":{"type":"Polygon","coordinates":[[[23.136576880076397,-33.65512222676748],[23.136548887084825,-33.65511721785311],[23.136466888176297,-33.6550862245951],[23.13640888655408,-33.65506822904251],[23.136323883945433,-33.65504323812216],[23.13621087634265,-33.655006239193504],[23.136115869667613,-33.654982239170025],[23.136044863521672,-33.65496924260403],[23.13600486742725,-33.65495822962404],[23.135911864871353,-33.654938244682796],[23.135790858200334,-33.65492323199858],[23.135732854192074,-33.65490424439173],[23.135649853553186,-33.654898241707315],[23.135597851090548,-33.65489423893767],[23.135529848336645,-33.65488723429383],[23.135451845876553,-33.65487925243647],[23.13538683452824,-33.65487824535834],[23.135855856499223,-33.65497422883019],[23.136575181278992,-33.655127859917776],[23.136576880076397,-33.65512222676748]]],"crs":null},"properties":{"erf":"354","place":"Uniondale, George Municipality","summary":"Water network upgrade Phase 2 / new reservoir with associated pipelines at Uniondale (Erf 354, The Fort Local Nature Reserve area).","purpose":"Water network upgrade Phase 2 / new reservoir with associated pipelines at Uniondale (Erf 354, The Fort Local Nature Reserve area).","source":"HilLand","url":"https://hilland.co.za/public-processes/construction-of-a-new-reservoir-with-associated-pipelines-uniondale-erf-354-the-fort-local-nature-reserve/","source_type":"EAP","parcel_num":"354","allotment":"UNIONDALE","town":"UNIONDALE Western Cape","zoning":"Undetermined Use Zone","sg21cde":"C07700040000035400000","title":"Uniondale Water Network Upgrade \u2013 Phase 2 (Erf 354 / The Fort Local Nature Reserve)","map_id":"eap-354-5"}},{"type":"Feature","geometry":{"type":"Polygon","coordinates":[[[22.59804982450729,-33.95687058635351],[22.598628846822187,-33.954525623448184],[22.599920879403054,-33.94933674445004],[22.599981831598058,-33.94909477613219],[22.59956589750656,-33.94897199678327],[22.58678522723734,-33.94518907203909],[22.582490156003672,-33.947522809252035],[22.57510770753619,-33.951531273660315],[22.579202501489245,-33.9611965796466],[22.579341897760383,-33.961526552793536],[22.580541712357526,-33.9608961269348],[22.580721915488574,-33.96085461972066],[22.58260843822568,-33.96043688778585],[22.582702383482747,-33.96041645494864],[22.583192030361875,-33.96030343062123],[22.58325587224311,-33.96028874272892],[22.586166032796,-33.9596191372853],[22.58709425925188,-33.95938958361507],[22.591460492788595,-33.95838658665797],[22.591593491788654,-33.958355588099025],[22.59169449778159,-33.95833258260968],[22.59804982450729,-33.95687058635351]]],"crs":null},"properties":{"erf":"385","place":"Hoekwil, George","summary":"FINAL BAR for cultivation of 11 hectares on Erf 385, Seven Passes Road, Hoekwil (DEA&DP 16/3/\u2026).","purpose":"FINAL BAR for cultivation of 11 hectares on Erf 385, Seven Passes Road, Hoekwil (DEA&DP 16/3/\u2026).","source":"Eco Route","url":"https://www.ecoroute.co.za/index.php/node/120","source_type":"EAP","parcel_num":"385","allotment":"HOEKWIL","town":"GEORGE","zoning":"Agricultural Zone I","sg21cde":"C02700050000038500000","title":"FINAL BAR \u2014 Cultivation of 11 ha on Erf 385, Seven Passes Road, Hoekwil","map_id":"eap-385-6"}},{"type":"Feature","geometry":{"type":"Polygon","coordinates":[[[22.594909906237678,-33.990220795573336],[22.594279489219602,-33.99087952559935],[22.592358840879278,-33.990882557418416],[22.591929480704337,-33.99016701258692],[22.59156399051997,-33.992393893598354],[22.594859984602845,-33.99156690416791],[22.594875925000427,-33.99156277719209],[22.594909906237678,-33.990220795573336]]],"crs":null},"properties":{"erf":"301","place":"Hoekwil / Wilderness, George","summary":"DRAFT BAR for residential dwelling and guest accommodation units on Erf 301 Hoekwil, Wilderness (Open listing with older PP end date).","purpose":"DRAFT BAR for residential dwelling and guest accommodation units on Erf 301 Hoekwil, Wilderness (Open listing with older PP end date).","source":"Eco Route","url":"https://www.ecoroute.co.za/index.php/node/106","source_type":"EAP","parcel_num":"301","allotment":"HOEKWIL","town":"GEORGE","zoning":"Agricultural Zone II","sg21cde":"C02700050000030100000","title":"Draft BAR \u2014 Residential dwelling & guest units on Erf 301 Hoekwil, Wilderness","map_id":"eap-301-7"}},{"type":"Feature","geometry":{"type":"Polygon","coordinates":[[[22.465005425663033,-33.94833398057256],[22.46473337003428,-33.94817902233561],[22.464504401136967,-33.94846095813242],[22.464783406030328,-33.94861996066813],[22.465005425663033,-33.94833398057256]]],"crs":null},"properties":{"erf":"325","place":"George (Erf 325 East)","summary":"Environmental Authorisation audit for Erf 325 East Housing (project GEO221).","purpose":"Environmental Authorisation audit for Erf 325 East Housing (project GEO221).","source":"Cape EAPrac","url":"https://www.cape-eaprac.co.za/index.php?option=com_content&view=article&id=722:erf-325-east-housing-ea-audit&catid=9&Itemid=102","source_type":"EAP","parcel_num":"325","allotment":"GEORGE","town":"GEORGE","zoning":"Single Residential Zone I","sg21cde":"C02700020000032500000","title":"EA Audit \u2014 Erf 325 East Housing","map_id":"eap-325-CapeEAPrac"}},{"type":"Feature","geometry":{"type":"Polygon","coordinates":[[[22.465254405260822,-33.94670301256153],[22.46526334674905,-33.94647453394435],[22.465263639308024,-33.946429308449],[22.465263962647267,-33.94637656617786],[22.46526452596427,-33.946286141234815],[22.465264934868518,-33.94621833215912],[22.46522951622106,-33.94610514069089],[22.465211989191626,-33.9460146461771],[22.46517663247948,-33.94588638778406],[22.465140977868504,-33.945803351249026],[22.465096470068993,-33.94569012114995],[22.46503397935803,-33.94556175202633],[22.464980369095816,-33.945463571141616],[22.464926895758254,-33.94533522942827],[22.46486427171479,-33.94522945724472],[22.464783557637485,-33.94512361540054],[22.464658241081906,-33.945007458147046],[22.464438287592095,-33.9448210588365],[22.462463405376187,-33.945280337614186],[22.462846314901128,-33.9454531055759],[22.46313728541982,-33.94558307277301],[22.463958816079312,-33.94595638658071],[22.463653319732583,-33.9465690363603],[22.46361333683456,-33.947777996113835],[22.464062364134968,-33.947925987793866],[22.464067599740495,-33.947919441181526],[22.464224873575823,-33.94789266172647],[22.464499383707647,-33.94804698086124],[22.464538363274723,-33.948068970897054],[22.46465338510611,-33.9479279787528],[22.464423372123044,-33.94779898984258],[22.464382929657862,-33.947775529330514],[22.464410371741263,-33.947741985816506],[22.464497375163017,-33.94763499279132],[22.464612386743585,-33.94749399882512],[22.4648613894104,-33.94712500763242],[22.4651413935351,-33.94671002140533],[22.465254405260822,-33.94670301256153]]],"crs":null},"properties":{"erf":"RE/464","place":"George","summary":"S24G application & assessment for George Municipality water/storage depot on Remainder of Erf 464 (project GEO860).","purpose":"S24G application & assessment for George Municipality water/storage depot on Remainder of Erf 464 (project GEO860).","source":"Cape EAPrac","url":"https://www.cape-eaprac.co.za/index.php?option=com_content&view=article&id=707:george-municipality-water-depot-s24g&catid=9&Itemid=102","source_type":"EAP","parcel_num":"464","allotment":"GEORGE","town":"GEORGE","zoning":"Open Space Zone IV","sg21cde":"C02700020000046400000","title":"S24G \u2014 George Municipality Water Depot (RE Erf 464)","map_id":"eap-RE/464-9"}},{"type":"Feature","geometry":{"type":"Polygon","coordinates":[[[22.45179288165167,-34.01431298916993],[22.451582875439264,-34.01426998831987],[22.451340855736735,-34.014220991680936],[22.451064849147446,-34.01416599025705],[22.451001849494183,-34.01421298804245],[22.451038849717257,-34.014440982798085],[22.451079842700942,-34.01468597355918],[22.45110385571219,-34.014828967011724],[22.451162859740183,-34.01488596166699],[22.451397859736502,-34.014939966809884],[22.45160686325647,-34.01498896488408],[22.451699872834528,-34.01465097662434],[22.45179288165167,-34.01431298916993]]],"crs":null},"properties":{"erf":"7379","place":"Pacaltsdorp, George","summary":"Pre-Application Draft BAR for filling station on Erf 7379, Pacaltsdorp (project GEO654).","purpose":"Pre-Application Draft BAR for filling station on Erf 7379, Pacaltsdorp (project GEO654).","source":"Cape EAPrac","url":"https://www.cape-eaprac.co.za/index.php?option=com_content&view=article&id=652:pacaltsdorp-filling-station&catid=9&Itemid=102","source_type":"EAP","parcel_num":"7379","allotment":"PACALTSDORP","town":"GEORGE","zoning":"Single Residential Zone I","sg21cde":"C02700070000737900000","title":"Pre-App Draft BAR \u2014 Pacaltsdorp Filling Station (Erf 7379)","map_id":"eap-7379-CapeEAPrac"}}]}